OBJECT_NAME,OBJECT_ID,EPOCH,MEAN_MOTION,ECCENTRICITY,INCLINATION,RA_OF_ASC_NODE,ARG_OF_PERICENTER,MEAN_ANOMALY,EPHEMERIS_TYPE,CLASSIFICATION_TYPE,NORAD_CAT_ID,ELEMENT_SET_NO,REV_AT_EPOCH,BSTAR,MEAN_MOTION_DOT,MEAN_MOTION_DDOT
IRIDIUM 113,2017-039A,2026-07-06T20:17:14.968032,14.34217150,.0002138,86.3988,313.9615,90.7058,269.4383,0,U,42803,999,47400,.10559E-3,.315E-5,0
NORSAT 2,2017-042D,2026-07-06T17:59:41.117280,15.22320774,.0008916,97.4058,0.8856,350.5837,9.5231,0,U,42828,999,49071,.37403E-3,.8563E-4,0
TECHNOSAT,2017-042E,2026-07-06T09:32:09.750912,15.05071587,.00181633,97.4297,344.3272,32.0297,328.2030,0,U,42829,999,48959,.24381162E-3,.3419E-4,0
FLYING LAPTOP,2017-042G,2026-07-06T20:22:08.622624,15.01277851,.001997,97.4781,342.6366,58.8580,301.4600,0,U,42831,999,48940,.28409E-3,.361E-4,0
WNISAT 1R,2017-042L,2026-07-06T09:56:27.589344,15.01844131,.00118045,97.4838,342.8501,91.1240,269.1338,0,U,42835,999,48939,.16994714E-3,.2163E-4,0
LEMUR-2-GREENBERG,2017-042N,2026-07-06T18:02:59.312832,15.31966739,.0007188,97.3832,8.2953,295.9330,64.1170,0,U,42837,999,49138,.44885E-3,.13796E-3,0
LEMUR-2-FURIAUS,2017-042R,2026-07-06T10:22:52.469472,15.30929761,.00067243,97.3781,5.8885,4.0809,356.0486,0,U,42840,999,49115,.62538306E-3,.18651E-3,0
CORVUS BC2,2017-042X,2026-07-06T17:23:15.288000,15.06424954,.0013941,97.4090,348.3176,49.7156,310.5288,0,U,42846,999,49000,.24007E-3,.3487E-4,0
CORVUS BC1,2017-042Y,2026-07-06T09:14:10.756608,15.06590495,.00124497,97.4126,348.8177,29.8378,330.3557,0,U,42847,999,48998,.25088186E-3,.3661E-4,0
VRSS-2,2017-060A,2026-07-06T20:17:09.453984,14.81228054,.0018095,97.6498,224.6860,39.7009,320.5525,0,U,42954,999,47136,.91979E-4,.668E-5,0
MOHAMMED VI-A,2017-070A,2026-07-06T20:32:50.034624,14.77096694,.0001157,97.9547,259.9160,86.7810,273.3533,0,U,43005,999,46688,.10894E-3,.719E-5,0
FENGYUN 3D,2017-072A,2026-07-06T21:07:35.616576,14.19742340,.0001956,99.0142,162.6592,30.4770,329.6519,0,U,43010,999,44778,-.13055E-3,-.323E-5,0
NOAA 20 (JPSS-1),2017-073A,2026-07-06T19:23:29.764896,14.19515363,.0001063,98.7772,127.0965,131.0495,229.0773,0,U,43013,999,44725,.47659E-4,.56E-6,0
MAKERSAT 0,2017-073D,2026-07-06T15:20:19.727808,15.32782580,.0104976,97.4596,70.3150,202.8118,156.8443,0,U,43016,999,46944,.44083E-3,.16571E-3,0
RADFXSAT (FOX-1B),2017-073E,2026-07-06T14:06:09.722592,15.12985163,.0148166,97.4676,54.4063,261.5365,96.9050,0,U,43017,999,46832,.26701E-3,.6099E-4,0
JILIN-1 04,2017-074A,2026-07-06T20:52:24.727296,15.42977027,.0005169,97.4866,298.0152,121.7452,238.4300,0,U,43022,999,47730,.25133E-3,.10985E-3,0
JILIN-1 05,2017-074B,2026-07-06T19:41:47.566752,15.34194260,.0005998,97.4872,294.2455,148.3598,211.8006,0,U,43023,999,47701,.19735E-3,.6453E-4,0
JILIN-1 06,2017-074C,2026-07-06T20:38:51.010368,15.33932869,.000746,97.4798,291.2694,159.5873,200.5669,0,U,43024,999,47685,.14193E-3,.458E-4,0
IRIDIUM 116,2017-083C,2026-07-06T09:37:55.096032,14.34218745,.0002322,86.3980,313.9683,100.6789,259.4668,0,U,43072,999,44692,.11538E-3,.343E-5,0
IRIDIUM 130,2017-083D,2026-07-06T20:35:31.024608,14.34218303,.0002132,86.3989,314.0546,100.4453,259.6983,0,U,43073,999,44693,.24021E-4,.87E-6,0
LKW-2,2017-084A,2026-07-06T21:23:13.183584,15.26614215,.0003118,97.1183,226.7672,135.2732,224.8759,0,U,43080,999,47469,.18921E-3,.4887E-4,0
SUPERVIEW-1 03,2018-002A,2026-07-06T20:37:04.822176,15.40001578,.0047322,97.3125,272.6747,110.2674,250.3668,0,U,43099,999,47139,.35736E-3,.14755E-3,0
CARTOSAT-2F,2018-004A,2026-07-06T20:04:01.848864,15.19226004,.0001979,97.4772,247.2782,153.8700,206.2634,0,U,43111,999,47031,.11565E-3,.2367E-4,0
LKW-3,2018-006A,2026-07-06T20:46:28.413696,15.35640279,.0002204,97.6634,349.2157,213.9173,146.1929,0,U,43146,999,47173,.29589E-3,.10171E-3,0
ASNARO-2,2018-007A,2026-07-06T20:07:29.095680,15.22356853,.0002013,97.3975,194.4585,90.4088,269.7379,0,U,43152,999,47040,.94013E-4,.2099E-4,0
JILIN-1 07,2018-008E,2026-07-06T18:45:24.991200,15.35067439,.0007701,97.1768,207.1904,1.6623,358.4645,0,U,43159,999,46800,.22552E-3,.7603E-4,0
JILIN-1 08,2018-008F,2026-07-06T20:39:13.076928,15.33944513,.000635,97.1804,206.5620,22.7169,337.4354,0,U,43160,999,46796,.1511E-3,.4887E-4,0
S-NET D,2018-014G,2026-07-06T18:59:53.066688,15.16866784,.0006752,97.5339,92.4600,321.2340,38.8408,0,U,43186,999,46173,.18859E-3,.3646E-4,0
