IRIDIUM 113             
1 42803U 17039A   26187.84531213  .00000315  00000+0  10559-3 0  9999
2 42803  86.3988 313.9615 0002138  90.7058 269.4383 14.34217150474000
NORSAT 2                
1 42828U 17042D   26187.74978145  .00008563  00000+0  37403-3 0  9998
2 42828  97.4058   0.8856 0008916 350.5837   9.5231 15.22320774490715
TECHNOSAT               
1 42829U 17042E   26187.39733508  .00003419  00000+0  24381-3 0  9998
2 42829  97.4297 344.3272 0018163  32.0297 328.2030 15.05071587489594
FLYING LAPTOP           
1 42831U 17042G   26187.84871091  .00003610  00000+0  28409-3 0  9999
2 42831  97.4781 342.6366 0019970  58.8580 301.4600 15.01277851489402
WNISAT 1R               
1 42835U 17042L   26187.41420821  .00002163  00000+0  16995-3 0  9996
2 42835  97.4838 342.8501 0011804  91.1240 269.1338 15.01844131489390
LEMUR-2-GREENBERG       
1 42837U 17042N   26187.75207538  .00013796  00000+0  44885-3 0  9996
2 42837  97.3832   8.2953 0007188 295.9330  64.1170 15.31966739491384
LEMUR-2-FURIAUS         
1 42840U 17042R   26187.43255173  .00018651  00000+0  62538-3 0  9993
2 42840  97.3781   5.8885 0006724   4.0809 356.0486 15.30929761491154
CORVUS BC2              
1 42846U 17042X   26187.72448250  .00003487  00000+0  24007-3 0  9991
2 42846  97.4090 348.3176 0013941  49.7156 310.5288 15.06424954490007
CORVUS BC1              
1 42847U 17042Y   26187.38484672  .00003661  00000+0  25088-3 0  9996
2 42847  97.4126 348.8177 0012449  29.8378 330.3557 15.06590495489989
VRSS-2                  
1 42954U 17060A   26187.84524831  .00000668  00000+0  91979-4 0  9995
2 42954  97.6498 224.6860 0018095  39.7009 320.5525 14.81228054471366
MOHAMMED VI-A           
1 43005U 17070A   26187.85613466  .00000719  00000+0  10894-3 0  9991
2 43005  97.9547 259.9160 0001157  86.7810 273.3533 14.77096694466882
FENGYUN 3D              
1 43010U 17072A   26187.88027334 -.00000323  00000+0 -13055-3 0  9990
2 43010  99.0142 162.6592 0001956  30.4770 329.6519 14.19742340447788
NOAA 20 (JPSS-1)        
1 43013U 17073A   26187.80798339  .00000056  00000+0  47659-4 0  9995
2 43013  98.7772 127.0965 0001063 131.0495 229.0773 14.19515363447256
MAKERSAT 0              
1 43016U 17073D   26187.63911722  .00016571  00000+0  44083-3 0  9998
2 43016  97.4596  70.3150 0104976 202.8118 156.8443 15.32782580469440
RADFXSAT (FOX-1B)       
1 43017U 17073E   26187.58761253  .00006099  00000+0  26701-3 0  9996
2 43017  97.4676  54.4063 0148166 261.5365  96.9050 15.12985163468325
JILIN-1 04              
1 43022U 17074A   26187.86973064  .00010985  00000+0  25133-3 0  9996
2 43022  97.4866 298.0152 0005169 121.7452 238.4300 15.42977027477308
JILIN-1 05              
1 43023U 17074B   26187.82068943  .00006453  00000+0  19735-3 0  9990
2 43023  97.4872 294.2455 0005998 148.3598 211.8006 15.34194260477013
JILIN-1 06              
1 43024U 17074C   26187.86031262  .00004580  00000+0  14193-3 0  9991
2 43024  97.4798 291.2694 0007460 159.5873 200.5669 15.33932869476854
IRIDIUM 116             
1 43072U 17083C   26187.40133213  .00000343  00000+0  11538-3 0  9996
2 43072  86.3980 313.9683 0002322 100.6789 259.4668 14.34218745446929
IRIDIUM 130             
1 43073U 17083D   26187.85799797  .00000087  00000+0  24021-4 0  9998
2 43073  86.3989 314.0546 0002132 100.4453 259.6983 14.34218303446937
LKW-2                   
1 43080U 17084A   26187.89112481  .00004887  00000+0  18921-3 0  9993
2 43080  97.1183 226.7672 0003118 135.2732 224.8759 15.26614215474694
SUPERVIEW-1 03          
1 43099U 18002A   26187.85908359  .00014755  00000+0  35736-3 0  9995
2 43099  97.3125 272.6747 0047322 110.2674 250.3668 15.40001578471393
CARTOSAT-2F             
1 43111U 18004A   26187.83613251  .00002367  00000+0  11565-3 0  9994
2 43111  97.4772 247.2782 0001979 153.8700 206.2634 15.19226004470318
LKW-3                   
1 43146U 18006A   26187.86560664  .00010171  00000+0  29589-3 0  9993
2 43146  97.6634 349.2157 0002204 213.9173 146.1929 15.35640279471736
ASNARO-2                
1 43152U 18007A   26187.83853120  .00002099  00000+0  94013-4 0  9995
2 43152  97.3975 194.4585 0002013  90.4088 269.7379 15.22356853470406
JILIN-1 07              
1 43159U 18008E   26187.78153925  .00007603  00000+0  22552-3 0  9997
2 43159  97.1768 207.1904 0007701   1.6623 358.4645 15.35067439468004
JILIN-1 08              
1 43160U 18008F   26187.86056802  .00004887  00000+0  15110-3 0  9997
2 43160  97.1804 206.5620 0006350  22.7169 337.4354 15.33944513467966
S-NET D                 
1 43186U 18014G   26187.79158642  .00003646  00000+0  18859-3 0  9994
2 43186  97.5339  92.4600 0006752 321.2340  38.8408 15.16866784461730
